[{"OBJECT_NAME":"STARLINK-3342","OBJECT_ID":"2022-001P","EPOCH":"2026-03-09T13:04:50.341440","MEAN_MOTION":15.13527546,"ECCENTRICITY":0.00011072,"INCLINATION":53.2137,"RA_OF_ASC_NODE":168.2566,"ARG_OF_PERICENTER":150.2604,"MEAN_ANOMALY":209.8454,"EPHEMERIS_TYPE":0,"CLASSIFICATION_TYPE":"U","NORAD_CAT_ID":50816,"ELEMENT_SET_NO":999,"REV_AT_EPOCH":23040,"BSTAR":0.0016459999,"MEAN_MOTION_DOT":0.00029653,"MEAN_MOTION_DDOT":0},{"OBJECT_NAME":"IRIDIUM 33 DEB","OBJECT_ID":"1997-051UN","EPOCH":"2026-03-08T06:46:46.443072","MEAN_MOTION":15.09674475,"ECCENTRICITY":0.00152582,"INCLINATION":86.3393,"RA_OF_ASC_NODE":271.884,"ARG_OF_PERICENTER":69.7211,"MEAN_ANOMALY":290.5665,"EPHEMERIS_TYPE":0,"CLASSIFICATION_TYPE":"U","NORAD_CAT_ID":35929,"ELEMENT_SET_NO":999,"REV_AT_EPOCH":89067,"BSTAR":0.003863549,"MEAN_MOTION_DOT":0.00062834,"MEAN_MOTION_DDOT":0}]
